First Name,Initial,Last Name,Address Line 1,City,State
Anallise,N,Dutson,Apt 1423,Ibagué,
Sydney,X,Volette,Apt 1627,Weiyang,
Koren,O,Leneham,Room 1078,Réo,
Wood,G,Ganders,Apt 540,Danao,
Pepe,K,Markwelley,Suite 47,Tuy Phước,
Ermentrude,X,Skillings,Apt 641,Jirkov,
Kore,J,Vines,Room 219,San Pedro,
Anna-diana,X,Fist,Apt 1446,Smederevska Palanka,
Hillary,M,Yaknov,Suite 24,Dolulolong,
Duncan,L,Hutcheson,Apt 784,Tycheró,
Gianni,I,Lindenblatt,PO Box 42125,Västerås,U
Paul,I,Crews,12th Floor,Kochani,
Chadd,N,Orthmann,Suite 4,Gabasumdo,
Deanna,W,Faulconer,Apt 1888,Puteaux,A8
Colver,Y,Cobbin,Room 101,Xiahan,
Benedetto,E,Lovewell,PO Box 1150,Rakitovo,
Datha,U,Lorinez,Room 1451,Strazhitsa,
Abramo,X,Farran,Apt 1123,Quezalguaque,
Prisca,A,Bagnal,18th Floor,Granada,
Brennan,S,Moubray,Room 1280,Lat Lum Kaeo,
Ashien,K,Ausello,Suite 38,Ondangwa,
Agnella,B,Northcote,9th Floor,Bokhan,
Savina,U,Gepp,14th Floor,Virbalis,
Arlina,L,Boss,PO Box 9320,Moundou,
Gregg,G,MacLaig,Room 554,Changzheng,
Dannye,W,Poxton,5th Floor,General Conesa,
Livy,I,Iacovacci,Room 1712,Dawe,
Anatol,O,Jecock,14th Floor,Qingkou,
Cate,W,Toland,Apt 466,Ziniaré,
Jephthah,Y,Maydwell,Room 670,Limeira,
Leontine,C,Scoggan,Suite 7,Nesterovskaya,
Sterne,Z,Wandrich,Suite 56,Nezvěstice,
Al,E,Decker,Apt 1936,Daciyao,
Judith,P,Rodman,Suite 79,Liljendal,
Nola,T,Esterbrook,Room 142,Youkounkoun,
Karoline,A,Cuncliffe,Apt 1339,Baishuiyang,
Tandie,X,Serrurier,5th Floor,Saint-Bruno-de-Guigues,QC
Wendeline,A,Kynston,Room 1936,Keswick,ON
Ilene,R,Lindberg,4th Floor,Beihe,
Jon,N,Fetterplace,6th Floor,Loureiro,3
Helsa,X,Paolini,Suite 39,Chitagá,
Tabbie,Z,Yeudall,Room 116,Seremban,NSN
Deana,B,Norquoy,2nd Floor,Argotirto Krajan,
Nichole,E,Skerme,PO Box 78350,Gōdo,
Katuscha,T,Moorwood,10th Floor,Levallois-Perret,A8
Teddie,I,FitzGilbert,Room 755,Changcun,
Corrinne,V,Howie,Room 152,Yinxi,
Kittie,M,Goodliff,Room 1337,Ostrów Wielkopolski,
Marquita,H,Gregorio,19th Floor,Cametá,
Jaclin,W,Mynett,8th Floor,Davila,
Mychal,H,Sillars,Apt 89,Perštejn,
Eduardo,N,Montfort,Suite 13,Keelung,
Brewer,J,Penritt,2nd Floor,Yixingfu,
Thaddeus,B,Gormally,Apt 1540,Konza,
Yetta,C,Learmont,PO Box 47188,Choros,
Marlo,H,Noli,Room 1734,Camden,NJ
Ulrick,I,Birtwell,Apt 844,Ning’an,
Horton,R,Colston,Suite 28,Nong Chik,
Ravid,I,Featherstone,11th Floor,Gizo,
Ingeborg,F,Berthouloume,Room 950,Řehlovice,
Gabbie,C,Shelsher,Apt 630,Hujra,
Gabrielle,R,Koopman,Suite 91,Real,1
Juieta,E,Haveline,5th Floor,Tala,
Giacobo,D,Ringrose,Apt 486,Obas,
Nathan,H,Helwig,19th Floor,Žabčice,
Minta,T,Palmer,PO Box 63454,Biting,
Berta,S,Caines,Suite 37,Stockholm,AB
Leila,V,Neillans,Suite 45,Pasargunung,
Nerissa,W,Rivaland,1st Floor,Lalukoen Dua,
Laraine,Y,Astill,Suite 52,Ustyuzhna,
Pia,T,Blue,Suite 38,Brudzew,
Chadwick,S,Janoch,Room 834,Tunjë,
Blaire,X,Hutchison,Apt 460,Stockholm,AB
Timotheus,P,Danilovich,Suite 91,Oibioin,
Livvy,Q,Gulston,Apt 921,Saint-Laurent-Blangy,B4
Marni,G,Bonehill,13th Floor,Sorol,
Cassandre,Q,Cassley,Room 1295,Dashu,
Albina,B,McMearty,Suite 50,Hidalgo,CHP
Laurence,P,Northidge,17th Floor,Lintaca,
Wilburt,K,Budget,PO Box 7322,Kaliprak,
Liesa,L,Vurley,PO Box 10796,Kotri,
Noemi,P,Lattie,PO Box 94000,Losari,
Sheffie,O,Malatalant,Room 815,Châteauroux,A3
Zackariah,F,Becaris,Apt 1436,Pingfeng,
Karolina,I,Drage,PO Box 17222,Santa Justina,
Vanny,O,MacCleod,Suite 34,Cazin,
Hercules,R,Swaffer,Apt 448,Almeria,AN
Talbot,H,Hollows,Apt 1731,Fátima,14
Nelie,T,Dolder,Apt 86,Lamía,
Craggie,E,Perrelle,PO Box 39019,Pamiątkowo,
Kirbie,T,Peinton,Suite 19,Cisasak,
Gottfried,C,Roels,Suite 56,Kuala Lumpur,KUL
Rodie,B,Hairsnape,Apt 614,General Pinedo,
Kevin,G,Dartnall,Suite 70,Aix-en-Provence,B8
Blane,N,Heeney,Room 948,Anyang-si,
Wynne,X,Mealham,PO Box 15437,Yupiltepeque,
Auria,J,Annon,Apt 790,São Domingos de Rana,11
Chrystal,T,Schulke,PO Box 66501,Kitwe,
Gabriella,B,Goddard,Room 1140,Saint-Denis,RE
Phyllis,S,Sparkwell,PO Box 89336,Cincinnati,OH
Clevey,M,Freathy,Room 1742,Martanesh,
Sonny,P,Gagen,Room 1185,Obolo-Eke (1),
Michel,F,Killick,Apt 677,Chengjiang,
Barb,Y,Lattos,Apt 819,Rettikhovka,
Daniel,L,Smurfitt,Apt 612,Shangdian,
Ileana,E,Ranner,17th Floor,Novo Cruzeiro,
Vivia,V,Damrel,Suite 18,Dijon,A1
Danny,C,Caesmans,PO Box 48868,Nowe,
Antons,Y,Dilliway,11th Floor,Grootfontein,
Gwen,A,Docharty,Suite 74,Cachoeiro de Itapemirim,
Netti,S,Stonhouse,Apt 1671,Babushkin,
Zechariah,X,Hoff,Apt 1278,At Tibnī,
Allie,X,Ivic,PO Box 42527,Saint John,
Abbey,P,McDonand,Suite 85,Yanwukou,
Cary,G,Morrowe,PO Box 96433,Hinvi,
Cindi,T,Tuffell,Apt 608,Fengshan,
Adelaide,N,Croker,Apt 278,Ozorków,
Caron,G,Copelli,Apt 1509,Auxerre,A1
Konrad,I,Boughtwood,Room 1004,Baihe,
Paul,G,Edeson,PO Box 93067,El Coco,
Locke,O,Shoorbrooke,Apt 1808,Chazón,
Garnette,V,Baytrop,5th Floor,Sagbayan,
Caye,V,Stovine,Suite 79,Nerokoúros,
Marena,Y,Kirvin,PO Box 5194,Sanchahe,
Sybyl,I,Halpeine,15th Floor,Hankha,
Rubia,O,Ibbitt,Suite 63,Grande Rivière du Nord,
Gratiana,R,Jaycox,Apt 1273,Reims,A4
Elmore,V,Klessmann,Room 133,Bang Sai,
Marijn,T,Shaplin,19th Floor,Loshnitsa,
Faun,K,Gannan,Suite 62,Zhongtong,
Lise,Y,Warratt,Apt 337,Umi,
Logan,A,Wimbridge,Suite 8,Nakhon Phanom,
Anabal,B,Stuttman,Room 1427,Åhus,M
Rube,E,Callen,Suite 88,Rantaupanjangkiri,
Helyn,U,Reggler,Apt 1516,Borzechów,
Kasey,R,Chawner,14th Floor,Helmas,
Ralina,Z,Lazar,Room 965,Diên Khánh,
Mada,S,Moysey,Suite 79,Cipaku,
Madelle,C,Jeckell,PO Box 55765,Bromma,AB
Allan,Z,Akram,Room 1616,Qalqīlyah,
Georgette,E,Luparto,Apt 528,Bat Khela,
Stanislaw,Z,Allsep,Room 653,Gaokan,
Milena,D,Druhan,PO Box 42169,Dubăsari,
Benny,B,Chaffer,18th Floor,Pedaringan,
Aurilia,C,Biddle,Suite 53,Queluz,11
Garfield,K,Ivasyushkin,Suite 42,Río Grande,
Kendal,F,Wrightson,Apt 1239,Raejeru,
Adelle,V,Kollatsch,12th Floor,Colorado Springs,CO
Niels,F,Vanichev,Apt 1373,Wanghu,
Tiena,O,Loweth,Room 1290,München,BY
Jaye,H,Garside,17th Floor,Cherskiy,
Freddie,H,Mushrow,Apt 1068,Yongqin,
Morie,X,Schrieves,Suite 23,Makungu,
Priscilla,L,Whitty,PO Box 58154,Koźle,
Herve,A,Gedney,Room 330,Shankeng,
Erek,A,D'Adamo,Apt 1058,Olkusz,
Francoise,R,Dowdeswell,Room 964,Baclayon,
Bunni,T,Lockley,Room 58,Postmasburg,
Marijn,O,Keele,Apt 1090,Pakel,
Terry,V,Moland,Suite 85,Cubará,
Lauree,H,Grishelyov,Suite 63,Oslo,3
Sebastian,Q,Ironside,Suite 30,Esmeralda,
Brynne,G,Hampstead,Suite 93,Aroeira,15
Shell,G,Hedney,Suite 12,Tamansari,
Hazel,W,Siburn,Apt 1714,Xieshui,
Riki,M,Filyashin,Suite 12,Baugo,
Layney,K,Davidescu,Apt 1825,Sosnovka,
Anna,H,Couttes,Apt 1229,Shejiang,
Leila,F,Barlass,Suite 89,Solna,AB
Wilden,R,Shorto,Apt 1274,Nanuque,
Consuela,F,O' Mulderrig,Room 1660,Oganlima,
Erl,O,Nott,PO Box 91209,Tunguang,
Kathie,Q,Downton,Suite 9,San Antonio,TX
Karie,U,Domeny,Apt 1573,Okegawa,
Falkner,W,Gascar,PO Box 66346,Yuanquan,
Norry,Q,Leate,PO Box 66670,Butere,
Ethel,X,Guarin,PO Box 77536,Lyon,B9
Shay,H,Amort,PO Box 47491,Hämeenkoski,
Sadye,O,Eymor,PO Box 11412,Huangchen,
Ranice,C,Dohr,Room 1276,Bokor,
Dniren,R,Aldren,Room 807,Sandyford,
Barrett,J,Follett,Apt 200,Monywa,
Jodee,S,Bayston,Apt 52,Zverevo,
Elias,E,Ehlerding,Room 432,Marxog,
Liam,H,Rizziello,Apt 1406,Alajuela,
Britt,R,Mannering,Room 946,Pomar,16
Mommy,D,Gallard,13th Floor,Rancaerang,
Pierette,K,Bridgewood,PO Box 31677,Hanušovice,
Aggie,J,Yurkevich,PO Box 76350,Jequitinhonha,
Stu,G,Giscken,4th Floor,Balabagan,
Caitrin,C,Ridel,Room 1661,Fonte de Angeão,1
Dasi,N,McAughtrie,Apt 1793,Velikovechnoye,
Dyan,F,Treacher,Apt 1557,Xiancun,
Dolorita,D,Gabriely,Apt 236,Yutsa,
Ursulina,N,Ciciotti,16th Floor,Cartí Suitupo,
Hal,T,Varndell,Apt 600,Yala,
Patrica,J,Semor,Apt 978,Xingtai,
Atlanta,H,Norville,Apt 790,Pampanito,
Mathilda,I,Arington,PO Box 55734,Orzesze,
Kellen,Y,McLarens,Room 1117,Pata,
Iormina,X,Copeman,Apt 888,Kadugadung,
Merlina,O,Trank,Suite 52,Bukhovo,
Helsa,Z,Slowey,Apt 1778,Irkutsk,
Wilbert,X,Latore,Suite 2,Kérkyra,
Brett,B,MacArd,PO Box 83418,Parada de Todeia,13
Gibbie,Y,Stagg,Room 162,Zhaogezhuang,
Elliot,J,McGuiney,Suite 55,Jhumra,
Jackquelin,P,Speachley,Apt 1151,Warsaw,
Nadya,K,Kemson,Room 1190,Zaoxi,
Aleen,C,Kornilov,Suite 32,Qīr Moāv,
Maude,Y,Kingdom,8th Floor,Hongjiang,
Olympie,X,Doick,PO Box 82321,Fuyang,
Christan,K,Souch,PO Box 86875,Zharrëz,
Jayme,I,Gaddes,Room 1647,Vila Verde,6
Kris,V,Norquay,PO Box 20627,Strömsund,Z
Balduin,P,Jallin,10th Floor,Selmes,2
Elnora,F,Reinbech,Suite 65,Banocboc,
Helga,U,Cadalleder,Suite 72,Ciyu,
Breena,H,Varney,Room 1403,La Quiaca,
Amory,T,Godwyn,Apt 990,Bauru,
Steffi,X,Grealish,Suite 19,Algueirão,11
Veriee,B,Tippings,20th Floor,Mgandu,
Lamond,D,Bennetto,Room 1267,Santiago Nonualco,
Domenico,F,Larter,PO Box 27005,Svetlanovskiy,
Ira,I,Savile,PO Box 40114,Marquard,
Clemmy,V,Pasfield,Apt 1318,Jajarkrajan,
Elvira,N,Treadger,18th Floor,Chiba,
Ardath,E,Harsum,PO Box 45315,Pruszków,
Diannne,I,Beneze,4th Floor,Wudangshan,
Jorgan,G,Kerry,5th Floor,Nejo,
Reginald,E,Haking,Suite 92,Deqing,
Nanon,Y,Nizard,Apt 1319,Le Blanc-Mesnil,A8
Corabel,D,Fellman,PO Box 31518,Biru,
Anton,N,Espin,PO Box 46441,Baturaden,
Jaymee,D,Von Welden,Suite 15,Arneiro,11
Michele,S,Carabine,Room 546,Quchi,
Culver,W,Kienzle,Suite 12,Tarrafal,
Maurice,B,Stubbley,6th Floor,Ha,
Aimil,P,Dulson,11th Floor,Arazane,
Ellerey,Q,Leahey,PO Box 7303,Changzhi,
Charmian,S,Parfett,15th Floor,Paderne,8
Anette,K,Fazzioli,Room 353,Masaraway,
Torrance,U,Feuell,PO Box 47408,Contraalmirante Cordero,
Rogerio,F,Brantl,Apt 845,Néo Psychikó,
Roselia,N,Snufflebottom,Apt 1227,Atakpamé,
Bern,R,Phipson,PO Box 39990,Chenjiatan,
Haroun,I,Gilardoni,19th Floor,Zhongyuan,
Kerrill,I,Speaks,Room 1885,Zhamao,
Tove,T,Browse,7th Floor,Kandy,
Nanine,A,Speares,Apt 1085,Kýthnos,
Briny,J,Faichney,Suite 17,Poggio di Chiesanuova,
Palmer,P,Beyn,9th Floor,Newport News,VA
Joete,C,Ramelot,PO Box 39237,Växjö,G
Jessy,T,Leabeater,Room 672,Vitim,
Jude,C,Abramovicz,Suite 11,Puerto Santander,
Tandie,Z,Dunkersley,PO Box 49808,Telêmaco Borba,
Denni,D,Cuphus,13th Floor,Níkiti,
Brewster,K,Meah,PO Box 53616,La Esperanza,VER
Christophe,N,Beasleigh,Room 1291,Banghai,
Christophe,Y,Oxbrough,Suite 40,Lodan Wetan,
Bibbye,P,Blackah,Room 1759,Wanglinkou,
Wenona,J,Yerrill,20th Floor,Pasirputih,
Ervin,Y,Lathleiffure,1st Floor,Turus,
Alexandr,N,Simanenko,Room 1183,San Agustin,
Lenna,D,Carter,Suite 76,Karangjaladri,
Marline,D,Forlong,Suite 67,Caomiao,
Erminia,V,Dann,11th Floor,Daigo,
Laurette,P,MacGibbon,Room 398,Panyingkiran,
Shepard,F,Dankersley,16th Floor,Al Muwayh,
Lolly,U,De Miranda,Apt 522,Balagon,
Early,B,Capoun,Room 642,Maxiao,
Marion,U,Laidel,7th Floor,Al Ḩarf,
Phylis,K,Larcombe,PO Box 44951,Zel’va,
Leontine,H,Lessmare,PO Box 31004,Ostuncalco,
Magdaia,G,Allone,Suite 78,Huwei,
Maiga,U,Grelka,Suite 44,Cilolohan,
Lyssa,A,Catt,Room 219,Pingyang,
Shannah,E,Bagshawe,18th Floor,Babo-Pangulo,
Olivie,V,Wooffinden,Room 1177,Poroj,
Marilyn,S,Condict,PO Box 79224,Tournai,WAL
Shawn,O,Birtle,PO Box 16444,Wutun,
Benton,H,Borchardt,Apt 650,Jiangdulu,
Raddie,G,Mion,6th Floor,Bang Yai,
Abram,K,Sailer,Room 667,Lipnica,
Donny,O,Tuvey,Apt 1234,Calancuasan Norte,
Vivienne,Y,Stucksbury,Suite 31,Dongshan,
Ewell,A,Gentil,Room 244,Bāft,
Gearard,O,Vasser,PO Box 66378,Yanguan,
Kriste,U,Dilliway,10th Floor,Cachipay,
Emmott,R,Gayle,Apt 575,Rędziny,
Rubie,G,Woodhouse,PO Box 12162,Xaysetha,
Killian,J,Atterley,Room 1827,Calumpit,
Terza,A,Leyzell,PO Box 14652,Guadalupe,SLP
Roslyn,B,Albinson,Room 208,Neftegorsk,
Eldon,P,Teece,PO Box 45626,Viamão,
Anjanette,D,Darwent,Suite 64,Santo André,15
Natala,D,Finding,Room 758,Barurao,
Leif,V,Brierly,Apt 230,Krajan Baru,
Esdras,I,Shillabeare,16th Floor,Taksimo,
Brigit,H,Scibsey,Suite 35,Enjiang,
Merrielle,G,Gossling,PO Box 72759,Guangyubao,
Oby,E,McNuff,PO Box 99975,Kasamwa,
Chastity,P,McIlmurray,Suite 98,Huanchillas,
Nate,L,Buchan,PO Box 88999,Pexiligais,11
Teena,Y,Oakley,2nd Floor,Tvøroyri,
Carry,F,Chaffey,PO Box 20459,Quintão,3
Wilek,J,Hauxby,Suite 79,Vitoria-Gasteiz,PV
Margot,K,Pryde,PO Box 39405,La Ronge,SK
Ganny,G,Seppey,PO Box 9100,Budapest,BU
Kort,L,Skepper,Room 1629,Apuri,
Park,I,Skoyles,Suite 27,Malaya Purga,
Cordula,L,Slorance,PO Box 49105,Kazanskoye,
Ansel,L,Webbe,Suite 59,Ágios Stéfanos,
Josh,P,Benezet,Suite 40,Ciudad Vieja,
Kat,S,MacTrustie,PO Box 51049,Las Varillas,
Shelley,X,Cranch,Suite 80,Cool űrhajó,
Noak,U,Rowthorn,Suite 86,Krajan Tanjungrejo,
Charmion,V,Loghan,Suite 33,Wonorejo,
Janaya,C,Botterell,9th Floor,Dinggou,
Darcie,J,Brookwell,Apt 1844,Songgang,
Chastity,S,Jonczyk,Suite 5,Vila Fria,11
Mauricio,N,McGonagle,PO Box 18998,Muzayri‘,
Barbara-anne,J,Chasles,5th Floor,Panchagarh,
Lacy,T,Weekley,Apt 516,Mānānwāla,
Aylmer,G,Seville,9th Floor,Huolongping,
Kai,W,Newitt,1st Floor,Marshintsy,
Nicol,J,Linay,11th Floor,Arnhem,3
Madelon,M,Denerley,Suite 52,Xianju,
Iris,D,Last,Room 375,Addis Ababa,
Glynnis,O,Eleshenar,Room 1654,El Peñón,
Adore,C,Joselevitch,Suite 2,Morelos,PUE
Gardy,C,Hurdedge,Suite 98,Veselí nad Moravou,
Trixie,Y,McFetrich,13th Floor,Korets’,
Geoffry,K,MacNish,Apt 868,Yangjiaping,
Millie,W,Fairest,Room 1063,Ugbokpo,
Kassi,L,Bottoner,Suite 99,Prantaan,
Malchy,T,Aynold,10th Floor,Wolong,
Alric,K,Lorain,Suite 79,Jingyang,
Garrett,T,Traise,Room 949,Soissons,B6
Livia,N,Bard,17th Floor,Independencia,OAX
Ilario,V,Matej,12th Floor,Osório,
Trever,G,Kharchinski,Suite 80,Beraim,
Kelsey,I,Gerasch,Suite 9,Lyon,B9
Blane,K,Servant,Room 581,Pluak Daeng,
Beck,E,Pottinger,Suite 17,Aţ Ţafīlah,
Oralia,C,Huddle,9th Floor,Washington,DC
Kellsie,T,Viant,PO Box 1206,Aboisso,
Millicent,K,Crowder,Suite 100,Lianran,
Zabrina,Q,Extall,12th Floor,Atlanta,GA
Adan,S,Renner,Apt 1917,Thị Trấn Mường Lát,
Curran,O,Noblet,Suite 2,Cusco,
Loree,O,Loadman,Room 120,Tucaní,
Stillmann,U,Lehrle,Suite 53,Goiatuba,
Loree,A,Sinott,PO Box 45129,Idhnā,
Marcel,P,Druhan,16th Floor,Huangling,
Inge,T,Goold,PO Box 24556,Sandata,
Brittani,M,Scrange,Suite 54,Węgierska Górka,
Jonis,F,Coursor,Apt 1058,Bébédja,
Bliss,T,Hollier,PO Box 97710,Gornji Breg,
Joana,Z,Gurery,Suite 75,Krasnyy Luch,
Stephanie,E,Galego,Apt 1056,Da’an,
Rogerio,D,Blaik,PO Box 5590,Belén de Umbría,
Salomone,M,Townsley,Suite 100,Stockholm,AB
Evered,X,Berendsen,Suite 26,Dvorichna,
Aubry,J,Witherden,PO Box 79900,Nginjen,
Salomi,U,Pettigree,8th Floor,Yylanly,
Sharity,U,Scotchford,Apt 1528,Klembivka,
Leonanie,G,Mundee,PO Box 95716,Tigbinan,
Lia,Q,Giuroni,Apt 1272,Manadhoo,
Ingrim,F,Uttridge,Suite 26,Las Palmas,GRO
Sigmund,B,Sicily,20th Floor,Pattani,
Joby,E,Soaper,PO Box 9709,Krasnokumskoye,
Kattie,W,Tissell,Room 1761,Ban Phan Don,
Clarette,T,Danihel,PO Box 52616,Shar,
Bobby,P,Ropkes,15th Floor,Nice,B8
Merridie,W,Chazette,Suite 77,Jaroměřice,
Joella,B,Skinner,Suite 55,Wolongquan,
Elsey,U,Epgrave,Suite 35,Az Zarbah,
Allister,D,Burge,Suite 28,Kiboga,
Dede,C,Mews,PO Box 29645,Hwaseong-si,
Jared,O,Kowal,PO Box 50161,Guihulñgan,
Bogey,N,Woofendell,Suite 83,Apongo,
Avril,D,Lambert-Ciorwyn,6th Floor,Sinuknipan,
Lucila,T,Kinnach,PO Box 34096,Galveias,12
Abbie,U,Dehm,Suite 99,Bangkle,
Kerrill,G,Codman,Apt 248,San Marcos,
Christiano,F,Kowal,Apt 489,Toulouse,B3
Renato,A,Bains,Suite 10,Gujō,
Conchita,P,McIlenna,Apt 641,Hashtpar,
Kanya,S,Fitzsimmons,PO Box 92050,Grande Rivière Noire,
Herculie,M,Giacaponi,Suite 6,Morioka-shi,
Ivan,Q,Wandrack,3rd Floor,Polje,
Dame,B,Nanetti,10th Floor,Enskede,AB
Dell,Q,Jurick,Room 1904,Hongqi,
Tucky,X,Lant,8th Floor,Mtambile,
Gayleen,I,Woollett,4th Floor,Stykkishólmur,
Shay,Q,Patrickson,Suite 88,Zhenzhushan,
Sephira,V,Morrish,4th Floor,Cileuya,
Neala,A,Hauger,PO Box 21173,Medzhibozh,
Jeannine,R,Josifovic,Apt 2,Gaphatshwe,
Dominique,T,Wadham,17th Floor,Carlos Tejedor,
Brendin,G,Braksper,Apt 81,Shaoyang,
Rosalynd,N,Novis,2nd Floor,Balneário Camboriú,
Bryant,I,Boyda,Suite 45,Pul-e Sangī,
Rafaela,X,Alessandrelli,Apt 1924,Maqian,
Collen,G,O'Toole,Room 1667,Ronglong,
Min,H,Inggall,Suite 86,Saba Yoi,
Levon,S,Gilchrest,PO Box 36950,Xi’an,
Tibold,Y,Lappin,PO Box 21250,Huangduobu,
Abraham,J,Packe,Apt 702,Sāh,
Libbi,D,Batkin,Suite 25,Štoky,
Ainsley,I,Yancey,PO Box 85385,Souran,
Eldridge,K,Winchcombe,PO Box 81204,Jaguariaíva,
Myrwyn,H,Croisier,10th Floor,Moa,
Idell,U,Matasov,Apt 507,Tsagaandörvölj,
Felicity,V,Dmtrovic,PO Box 42495,Itapé,
Rolph,Q,Rabbatts,1st Floor,Lyon,B9
Jacinthe,M,Dyzart,PO Box 15511,Pôsto Fiscal Rolim de Moura,
Richmond,N,Omar,PO Box 48675,Al Qaţīf,
Leupold,U,Sutherns,Apt 1551,Chapadinha,
Dyana,R,Triplet,11th Floor,Inuotose,
Evin,S,Leacock,PO Box 11431,Yong’an,
Allister,M,Ogus,PO Box 26567,Siguqiao,
Sissie,Z,Clemitt,2nd Floor,Brooklyn,NY
Sigrid,J,Prince,Suite 9,Velykyy Klyuchiv,
Eloisa,J,Taunton,3rd Floor,Newcastle,
Gael,X,Leaburn,Room 1200,Ulashan,
Mirabella,E,Naseby,PO Box 84332,Sardasht,
Curt,A,Filipyev,Suite 53,Baoshan,
Eva,Y,Bendig,Room 809,Ban Na,
Myra,Y,Culross,Room 15,Santander,CB
Leicester,E,Eliff,Room 1981,Shenavan,
Sybila,L,Swadon,PO Box 9556,Norton,ENG
Artie,E,Hazeltine,17th Floor,Glondong,
Yorke,S,Jeste,Apt 1078,Ciela Lebak,
Fina,N,Benardeau,PO Box 24972,Nkpor,
Arney,H,Knutton,PO Box 58389,Az Zarqā,
Odele,R,Nellen,Room 1134,Manikchari,
Winny,Z,Westmerland,6th Floor,Kagadi,
Gaylene,C,Joe,Room 1630,Jeziorany,
Antoinette,E,Gadsby,Apt 728,Gongjiang,
Jo ann,N,Wiggin,Room 832,Ndibène Dahra,
Orin,S,Strudwick,Apt 1239,Tyszowce,
Wade,S,Jakeway,PO Box 80478,Čoka,
Esther,Q,Flower,Suite 30,Vannes,A2
Pieter,O,Schober,PO Box 72310,Merdeka,
Tomas,V,Durrance,PO Box 98282,Krasnofarfornyy,
Terese,D,Tees,1st Floor,Zuogaimanma,
Katine,K,Wevell,11th Floor,Urasqui,
Ab,G,Picardo,Room 484,Bacnotan,
Aretha,Z,Maun,4th Floor,Kabir,
Charlotte,E,Renfree,Room 369,Toksovo,
Athena,F,Feronet,4th Floor,Ḑubāh,
Cindy,V,Shotbolt,PO Box 41060,Mogok,
Phillis,W,Landsberg,Suite 5,Zharrëz,
Ruddy,M,Huskisson,Apt 237,Tibro,O
Shanda,N,Gilhouley,PO Box 25625,Maimará,
Brnaba,T,Cowely,Room 927,Seremban,NSN
Angele,Q,Aleso,PO Box 94188,Nanshao,
Quint,S,Foy,PO Box 78311,Calilegua,
Goldia,F,Bunten,Suite 55,Ḩabīl al Jabr,
Gerri,N,Charrette,10th Floor,Rulenge,
Bryant,R,Saturley,Suite 21,Rîbniţa,
Misty,C,Standbrooke,17th Floor,Kobuleti,
Danita,B,Morgan,Suite 8,Siquisique,
Benson,L,Wolstenholme,Apt 412,Kabalo,
Garrot,C,Larder,Apt 1598,Zarichchya,
Ursulina,H,Gurdon,Suite 42,Sujiazhuang,
Carey,H,Leffek,Room 377,Jianyi,
Ivonne,N,Goundry,Suite 75,Naudero,
Kamila,A,Lowre,Room 1974,Salinas,
Florette,E,Upham,Room 1011,Minggang,
Vito,D,Selburn,5th Floor,Comandante Luis Piedra Buena,
Giustino,S,Grenville,Suite 25,Lianozovo,
Adrianne,K,Figin,PO Box 93790,El Carril,
Ginni,H,Chaffin,Suite 16,Atyrá,
Kip,Q,Alessandrini,Suite 25,Naqadeh,
Giles,T,Rapaport,Apt 1842,Qingshuitang,
Victor,P,Hackney,14th Floor,Balitoc,
Hammad,X,Binestead,20th Floor,Shinyanga,
Killian,D,Oscroft,Apt 943,Pushkino,
Steffie,N,Oger,Suite 100,Qiujima,
Rhodie,R,Crummay,PO Box 44938,Carvalhais,6
Betty,T,Luca,1st Floor,Berezne,
Marinna,S,Hardern,Suite 33,Wonodadi,
Edwin,V,Caulcutt,Room 1896,Sumberrejo,
Kyrstin,N,Heindrick,PO Box 85080,El Paso,TX
Toma,A,Jago,17th Floor,Nangang,
Brigham,J,Oldcote,Suite 47,Šluknov,
Guthrie,T,Gorman,Apt 277,Helsingborg,M
Felice,N,Cruft,Apt 868,Lago da Pedra,
Adan,S,Hewkin,Suite 51,Panggulan,
Efrem,S,Diack,PO Box 61277,Radzyń Chełmiński,
Matt,L,Clabburn,Apt 844,Kaka,
Sandro,P,Yes,Apt 146,Peishe,
Gery,R,Koles,Room 652,Novoye Devyatkino,
Dionne,X,Renshell,16th Floor,Yerazgavors,
Pauletta,D,Salla,Suite 58,Medveditskiy,
Rockwell,T,Batistelli,2nd Floor,Gò Quao,
Daron,X,Gwatkins,Room 238,Kota Kinabalu,SBH
Donny,H,Kaesmakers,7th Floor,Barwałd Średni,
Alethea,R,Buckland,Apt 965,Paraíba do Sul,
Tani,Q,Sima,Apt 1653,Strumica,
Rhett,J,Blackman,PO Box 36259,Shchelkovo,
Dena,K,Pickless,Room 1893,Ibagué,
Allianora,W,Ffoulkes,Apt 1011,Añelo,
Evin,W,Penman,4th Floor,Daireaux,
Garrik,U,Ruter,10th Floor,Changsha,
Lorne,T,Weippert,Room 97,Vel’sk,
Paxton,L,Gammell,Apt 962,Banxi,
Rick,L,Beauman,Apt 1538,Ipoh,PRK
Tami,X,Crockley,PO Box 42519,Loo,
Aleta,X,Ginner,PO Box 72816,Mapiripán,
Agnesse,Z,Hibbart,Room 1530,Yanshi,
Heath,Y,McAlinden,PO Box 44924,Nagutskoye,
Alexandro,W,Thieme,Apt 1567,Amberd,
Willie,D,Milesop,Suite 59,Campoverde,
Theodora,Q,O' Shea,Apt 983,Wakapuken,
Katee,Y,Oakly,3rd Floor,Saint-Constant,QC
Lyndell,J,Primak,Room 1235,Bardo,
Feliks,O,Innis,16th Floor,Monaghan,
Papagena,N,Blakey,Suite 94,Batur Kidul,
Vyky,T,Calderon,Room 1810,Rodatychi,
Mavra,E,Dudbridge,Suite 40,Qijing,
Temp,X,Hargreaves,1st Floor,Hanggan,
Alonzo,L,Simoneschi,Room 95,Golub-Dobrzyń,
Carmelina,B,Frankel,Room 751,Nelazskoye,
Myra,O,Domengue,PO Box 16694,Mullsjö,F
Ahmed,V,Dougary,Apt 685,Vista Hermosa,TAM
Pierson,P,Songust,Apt 1935,Mogi Guaçu,
Merla,Q,Nottle,Suite 67,Neiba,
Rube,F,Cavey,PO Box 57834,Panjāb,
Thatcher,Z,Wile,1st Floor,Quán Hàu,
Dane,T,Matschuk,PO Box 64019,Tianning,
Ryley,Z,Lenard,Apt 1784,Chiba,
Lemmy,S,Gerrie,Room 497,Siemkowice,
Cordy,U,Warfield,Apt 795,Halteu,
Cleo,C,Danskine,Room 1144,Achada,42
Elle,U,Kestell,Apt 1192,Barão de Cocais,
Allard,R,Figger,Room 1997,Luofang,
Alvy,K,Kaysor,Apt 1837,Carrizal,
Shirlee,N,Gimblett,Suite 48,Kilifarevo,
Weider,G,Sunnex,10th Floor,Shreveport,LA
Worden,Y,Marcq,Apt 1869,Valence,B9
Jard,E,Girvan,Apt 1297,Lubaczów,
Giuditta,G,Shellibeer,Suite 72,Yangwei,
Townsend,F,Paolicchi,PO Box 43359,Zhangshui,
Peter,U,Richings,6th Floor,Junín,
Pamelina,B,Grent,Room 1036,Fada N'gourma,
Bill,A,Momford,PO Box 57096,Karlstad,S
Linnet,V,Bennellick,Room 1492,Norak,
Josephina,L,Vegas,Apt 1448,Jiamaying,
Reena,B,Connealy,Suite 98,Sokol’skoye,
Reagen,V,Smalls,PO Box 80075,Rungis,A8
Gun,B,Sergean,Apt 1896,Xia’ertai,
Fergus,G,Hune,Suite 10,Motala,E
Zelda,I,Taunton,14th Floor,Gulao,
Claretta,L,MacCague,Suite 53,Corticeiro de Baixo,6
Ambrosi,G,Kenward,Apt 88,Nangger,
Helli,R,Briston,Apt 1246,San Agustín de Valle Fértil,
Waly,K,Bogace,Room 1884,Noenoni,
Friedrich,V,Adderley,17th Floor,Sanjiazi,
Ariela,X,Jellings,3rd Floor,Adela,
Gregg,I,Wombwell,PO Box 47831,Malveira,11
Berty,J,Milstead,Room 964,Anchau,
Sonnnie,K,Olkowicz,3rd Floor,Kuala Lumpur,KUL
Katlin,V,Sunshine,Apt 1519,Goianira,
Gare,R,Scapelhorn,14th Floor,Gagnoa,
Hubie,K,Skym,18th Floor,Mekon,
Alberik,L,Ornells,Suite 91,Maoshan,
Ediva,N,Illidge,18th Floor,Bantengan,
Maddi,W,Grinsted,Apt 1208,Concepción,
Ellynn,D,Oganian,PO Box 78135,Shinyanga,
Karoline,I,Trett,Room 1541,Salamanca,
Joshuah,M,Kach,PO Box 14192,Landvetter,O
Worthington,M,Harler,PO Box 69618,Hali,
Clarisse,L,Bubeer,Room 1253,Mirny,
Celestyn,L,Lurner,Suite 74,Hebu,
Zandra,W,Adriaens,Room 446,Gawul,
Ashil,Q,Burford,PO Box 60874,Leuburi,
Lazarus,Y,Mepham,15th Floor,Thị Trấn Than Uyên,
Dyana,A,McGiffin,PO Box 1285,Jingcheng,
Bliss,R,Mayhew,PO Box 9519,Xiaozhoushan,
Andreas,Y,Northley,10th Floor,Huazhuang,
Lurline,R,Knell,Apt 264,Somita,
Ariel,N,Calendar,Apt 1667,Póvoa de Penela,18
Bernardo,D,Harry,1st Floor,Thị Trấn Quán Lào,
Sloan,T,Anster,PO Box 13907,Santa Rosa,
Dre,T,Driffield,13th Floor,Matola,
Breena,K,Bessent,Apt 182,Sumberjati,
Kevan,Y,Raynham,PO Box 1152,Santa Maria,
Celesta,E,Frood,Apt 463,Ipoh,PRK
Reinaldo,U,Saville,3rd Floor,Kramfors,Y
Eolanda,X,Critcher,4th Floor,Chirongui,
Bary,G,Bettaney,PO Box 71915,Teresina,
Babbette,B,Oherlihy,3rd Floor,Oklahoma City,OK
Gill,W,McCole,Suite 87,Hongshunli,
Dorita,O,Colleymore,Apt 1095,Bairro Assunção Piedade,15
Nelson,I,Swin,Suite 86,Agoncillo,
Heath,T,Lownsbrough,Suite 39,Austin,TX
Henryetta,T,Gitsham,3rd Floor,Kuressaare,
Melony,O,Otham,Suite 16,Baturité,
Elissa,W,Robard,Room 1355,Kirovs’k,
Paul,Y,Goulding,19th Floor,Sungairaya,
Flory,H,Demangel,PO Box 27002,General Enrique Mosconi,
Caril,W,Menauteau,Room 340,Bibai,
Ross,S,Guidetti,Room 499,Aldeia do Bispo,5
Berny,K,Frounks,16th Floor,Sandakan,SBH
Idalina,S,Durram,20th Floor,San Francisco,
Guillema,X,Giacomuzzi,Room 1885,Penja,
Auberon,S,Deetlefs,PO Box 41440,Ibarreta,
Kermie,B,Bowers,Suite 44,Tân Trụ,
Kaja,A,Sworne,11th Floor,Xianning,
Vanni,I,Rockwell,Apt 261,Tuxi,
Thane,X,Ravenhills,Room 852,Steinfort,
Earvin,H,Dumphry,Suite 57,Hartford,CT
Arielle,V,Weond,PO Box 58246,Tupiza,
Ibbie,N,Yarrall,Room 1253,Panshan,
Corny,S,Valiant,Suite 96,Guarabira,
Batsheva,X,Picopp,PO Box 81894,Sonzacate,
Ermina,B,Cushelly,Suite 25,Haoxue,
Jany,C,Swindon,Suite 91,Legrada,
Louise,H,Stirling,PO Box 47894,Catache,
Cher,W,Kitchingman,Apt 1487,Visby,I
Celinka,D,Licence,Apt 1517,Melikkrajan,
Agnes,I,Mariot,Suite 53,Cajuru,
Angil,R,Khomich,19th Floor,Haikou,
Ketti,A,Halm,Apt 627,Juupajoki,
Harlen,O,Cristofolini,15th Floor,Marabá,
Filmore,W,Naseby,Room 1348,Tillabéri,
Charmian,I,Dedham,Room 654,Darvi,
Nydia,D,Yakunkin,Room 1062,Ogōri-shimogō,
Jacinda,S,Simone,Room 1133,Pinillos,
Early,P,Baddeley,Room 653,Kanekomachi,
Locke,I,Gravett,PO Box 2086,Qitan,
Arin,A,Rosewall,PO Box 63093,Port Saint Lucie,FL
Marni,W,Elcoat,Room 1516,Capulaan,
Veriee,A,Hought,Room 1930,Uthal,
Mal,H,Alflatt,Room 1401,Rowotengah,
Jacquenetta,F,Norsister,7th Floor,Stepanovićevo,
Rowe,C,Mowne,Suite 79,Bystrytsya,
Lynea,C,Grewar,Suite 83,Xuebu,
Remy,D,Gillitt,8th Floor,Zielonka,
Doug,I,Kopacek,Room 744,Marly-le-Roi,A8
Blakeley,L,Mitrikhin,Room 174,Zalţan,
Gabi,D,Gladden,PO Box 69344,Kakamega,
Maryl,E,Dudliston,17th Floor,Estela,13
Alain,G,Ghirardi,Apt 1694,Liulin,
Garwin,Q,Roderighi,Suite 25,Omaha,NE
Elisha,K,Rives,Apt 358,Till,
Zachariah,W,Tomisch,Room 1331,Sasebo,
Alphonso,B,Lehon,PO Box 17848,Caikouji,
Erek,N,Pargeter,Apt 1559,Brwinów,
Wanids,W,Ewbanche,PO Box 6760,Biga,
Berta,W,Anfonsi,Apt 1228,Hongor,
Sidney,L,Beining,Suite 90,Banī Zayd,
Shawn,U,Jarmain,3rd Floor,Fullerton,CA
Eamon,I,Brierly,3rd Floor,Karangwaru,
Rasla,Q,Demonge,17th Floor,Velikiye Borki,
Obed,G,McGuffie,PO Box 27323,Paris 15,A8
Aretha,E,Hallen,PO Box 97023,Ksour Essaf,
Gene,C,Kerne,Room 236,Nora,T
Rhett,Q,Gale,PO Box 90252,Bayan,
Audre,S,Keenleyside,Apt 1976,Bol’shaya Setun’,
Aubrette,I,Ellcome,Room 79,Kabulusan,
Debee,L,Ketton,Room 552,Budzów,
Everett,B,Pidcock,PO Box 71849,Kizel,
Marcile,C,Charlet,6th Floor,Voyutychi,
Almira,S,Dohr,Apt 655,Nuamuzi,
Clemmy,A,Dongles,Room 654,Loma Bonita,GRO
Ammamaria,W,Kolodziej,Room 1427,Bonn,NW
Rowan,R,O'Fogerty,5th Floor,Sukarara Utara,
Lovell,H,Shrawley,14th Floor,Hotaka,
Candra,G,Maciak,PO Box 76806,Arrifes,42
Roxi,S,Vaar,Suite 28,Oetua,
Harman,L,Bartoli,7th Floor,Hongjiaguan,
Liva,T,Murrison,Suite 76,Quwa,
Evie,L,Greason,Apt 797,Poá,
Friedrick,F,Lamey,Suite 13,Baise City,
Charin,I,Taffarello,Apt 115,Gabaldon,
Lanette,H,Higbin,11th Floor,Pukou,
Ambur,Y,Caslin,Room 1319,Korczew,
Byron,H,Rimer,Apt 972,Bijela,
Spence,P,MacVanamy,Room 1692,Shuangyang,
Thaddus,S,Steggles,2nd Floor,Manggekompo,
Chandler,A,Stronghill,Suite 47,Prévost,QC
Jilly,D,Layman,Apt 268,Živinice,
Karon,C,Yarrell,Apt 501,Luzhou,
Gerhard,G,Kundt,1st Floor,Skene,O
Elsbeth,P,Claxson,Room 1948,Las Americas,GUA
Conway,R,Coltan,PO Box 63902,Arvidsjaur,BD
Penn,I,End,18th Floor,Ketapang,
Arvy,Y,Paffley,PO Box 77695,Kez,
Teodoro,R,Brotheridge,PO Box 8264,Skinnskatteberg,U
Teresa,N,Mackilpatrick,PO Box 27922,Mene de Mauroa,
Alphard,B,Josefer,PO Box 81556,Wanli,
Hermione,K,Swinyard,Suite 59,Tambakbaya,
Spike,V,Garnul,PO Box 75263,Hongchang,
Tamma,Z,Welbourn,4th Floor,Palca,
Marla,F,Stansbie,8th Floor,Hoorn,7
Josee,N,Midford,19th Floor,Ol Kalou,
Keefer,I,Bradane,PO Box 84476,Kinh Môn,
Cobb,Q,Dibnah,6th Floor,Fauske,18
Phillie,R,Corneille,Suite 48,Yuxi,
Emelita,X,Kensett,Suite 4,Saint-Germain-en-Laye,A8
Cristobal,J,Kew,Suite 89,Sult,
Terrijo,A,Veillard,Room 1389,Yinghua,
Roddie,Q,Foulsham,Suite 37,Kanigorokrajan,
Zachery,I,Houlahan,PO Box 24150,Villeurbanne,B9
Willabella,T,Huglin,Apt 1830,Vitez,
Danita,C,Pentony,Room 1307,Canillo,
Kaylil,A,Peert,PO Box 65901,Gobang,
Ashton,X,Lantuff,PO Box 16700,Yong’an,
Hadley,O,Lelliott,Suite 88,Vareš,
Rollie,O,Staite,PO Box 82727,Madison,WI
Fulton,N,Wingrove,Suite 84,Dapdapan,
Randee,X,Morritt,PO Box 50242,Del Pilar,
Lee,R,Pepye,PO Box 35988,La Oroya,
Hilario,D,Robrow,PO Box 48725,Ponte Nova,13
Anissa,A,Claxson,Suite 53,Insua,16
Mellisa,M,Ferrie,Room 627,Dhankutā,
Netti,Q,Broscombe,PO Box 80151,Hamburg,HH
Lombard,I,Mark,Room 1495,São Lourenço da Mata,
Stefanie,R,Roakes,Suite 24,Bahía Blanca,
Theobald,S,Reese,Apt 1507,Hässelby,AB
Rikki,L,Christauffour,PO Box 29765,Chigasaki,
Dianna,K,Sabben,PO Box 82484,Guay,
Pegeen,M,Dunnett,Room 1225,Sintansin,
Kelsey,K,Duchart,Apt 312,Yuhang,
Shurlock,A,Deeney,PO Box 62349,Działoszyce,
Em,V,Farens,4th Floor,Ten’gushevo,
Mirelle,M,Cristofor,PO Box 19486,Yegorlykskaya,
Cordelia,V,Fifoot,PO Box 94736,Sumber,
Lita,F,Stalman,PO Box 31852,Libas,
Page,J,Lamdin,7th Floor,Koski Tl,
Boycey,A,Tomaskov,Room 1411,København,1084
Isiahi,H,Looney,PO Box 48388,Taunan,
Sigfried,Y,Peirce,19th Floor,Basarabeasca,
Skyler,W,Edgeller,PO Box 57050,Sarulla,
Temple,Z,Keyzman,Room 996,Shangpai,
Debora,Q,Myhill,Room 709,Paris La Défense,A8
Nikolai,S,Trenholm,Apt 1602,Ualog,
Shanda,V,Lancley,Suite 30,Amānzī,
Mariquilla,Z,Entwisle,Suite 74,Sung Noen,
Karie,E,Riguard,Apt 178,Xianxiang,
Binky,E,Juanes,Suite 36,New Pandanon,
Troy,W,Adkin,6th Floor,Tegalwero,
Danita,B,Roderigo,Suite 22,Datong,
Nathaniel,F,Cannings,9th Floor,Xialu,
Ailina,U,Astle,PO Box 10496,Wrząsowice,
Graeme,N,Rickard,Apt 709,Alastaro,
Abbey,J,Lowde,16th Floor,Beppu,
Kassi,Y,Empringham,Apt 1030,Yaguarón,
Emory,N,Pulver,Apt 1093,Upernavik,
Boniface,B,Hauger,PO Box 39587,Koson Shahri,
Sabra,S,Arkow,Suite 17,Canelas,1
Christyna,P,Peery,PO Box 42028,Buynaksk,
Jesselyn,P,Oughton,16th Floor,Peredovaya,
Lorry,Q,Beincken,Apt 1100,Gangbei,
Far,A,Bricknall,PO Box 37035,Legok,
Melonie,L,Benjamin,6th Floor,Tomdibuloq,
Daisey,I,Fearnehough,2nd Floor,Toledo,CM
Loise,W,Rhule,Suite 40,Tomakomai,
Addia,T,Hudel,Suite 42,Spuž,
Faulkner,S,Mapson,14th Floor,Vidče,
Dianemarie,E,Gentile,Suite 13,Langkapcaang Hilir,
Sanford,M,Pumfrey,PO Box 34460,Nouna,
Lorin,A,Lumox,14th Floor,Lefkímmi,
Sascha,D,Struys,10th Floor,Hamm,NW
Sarine,H,Timmis,PO Box 54323,Espinheira,1
Giles,P,Craythorn,Room 154,Dmytrivka,
Theadora,L,Marmyon,PO Box 20620,Phonsavan,
Jami,G,Yeudall,PO Box 53422,San Sebastian,
Yolande,N,Axford,PO Box 32164,Kebonan,
Daryle,V,Start,14th Floor,Amirabad,
Cecilius,X,Sayer,Room 336,Jaworzyna Śląska,
Emmalynn,U,Vayro,Suite 5,Guarulhos,
Justinian,H,Renyard,Suite 63,Yao’an,
Keslie,P,Rosenfrucht,Suite 59,Mingzhong,
Jammal,Q,Bargh,Suite 35,Phu Luang,
Gay,H,Govini,Apt 1418,Aix-en-Provence,B8
Rebecca,D,Pirie,PO Box 99622,Timezgana,
Lennie,B,Hansley,Apt 1753,Jing’an,
Griff,B,Gambell,Apt 450,Luobuqiongzi,
Gib,U,Bailiss,9th Floor,Xinxu,
Suzette,M,Minocchi,PO Box 58721,Nggalak,
Sasha,Y,Fawbert,PO Box 28889,Bastia,A5
Jolene,F,Trippick,PO Box 2562,Shazi,
Milton,L,Duggen,Room 685,Hamburg,HH
Merrile,C,Tarborn,6th Floor,Baras,
Terrijo,E,Freed,Suite 9,Cusapín,
Alexandro,R,Callaghan,Suite 44,Ell,
Arman,W,Gergolet,PO Box 90113,Otrado-Kubanskoye,
Agna,G,Poat,Apt 468,Nova Granada,
Yovonnda,J,Scrowton,Room 1563,Kusŏng,
Nanon,P,Bonnavant,Room 900,Dire Dawa,
Umberto,R,Frogley,Suite 2,Punta Arenas,
Kingsly,I,Dyke,3rd Floor,El Cubolero,
Dalia,M,Lazonby,8th Floor,Taiyigong,
Dode,N,Schapero,PO Box 9506,Bagok,
Georgy,W,Katte,PO Box 57760,Karuri,
Cyb,B,Skehens,13th Floor,Tuofeng,
Eve,V,Tarbert,19th Floor,Perzów,
Neille,H,Hirsthouse,Apt 547,Cibeureum,
Ulrike,K,Boness,PO Box 15363,San Francisco,CA
Lainey,U,Cristol,Room 1465,Pentéli,
Georgeta,E,Broker,Apt 1103,Mileb,
Keane,D,Holleran,17th Floor,Ban Tak,
Xylina,I,Ridgway,Suite 34,Bajomulyo,
Albertine,W,Rumsby,Room 784,Nungga,
Adair,W,Clowton,Apt 1431,Pilchowice,
Teriann,S,Ather,PO Box 94029,Sivaki,
Laurel,N,Yankishin,Room 1944,Goiás,
Margette,H,Osgorby,7th Floor,Toyama-shi,
Fredek,T,Putland,Suite 72,Calape,
Upton,D,Brickwood,Apt 991,Libode,
Samuel,L,Haistwell,Suite 39,Uritsk,
Marsiella,I,Bennell,Suite 68,Paraty,
Dillon,Z,Ferby,Suite 52,Havana,
Winona,O,Pisco,PO Box 54195,Pamplona/Iruña,NC
Ezra,O,Keppie,Room 338,Pokhvistnevo,
Wye,E,Crombleholme,Suite 86,Shuitou,
Derrik,B,Boshier,11th Floor,Tía Juana,
Felicio,B,Mate,Room 903,Huanghuatan,
Danyelle,Z,Vawton,Apt 320,Amnat Charoen,
Marlo,I,Pedron,11th Floor,Apóstoles,
Gusty,S,Berth,PO Box 26421,Văn Điển,
Gualterio,V,Woolforde,Apt 1757,Langley,ENG
Lorry,D,Spray,Room 1887,Sishilichengzi,
Audrye,H,Fermin,Room 1352,Tipitapa,
Nicolle,G,Gronno,PO Box 29878,Kalianda,
Caddric,E,Iddon,Room 541,Ash Shuhadā’,
Gaven,H,Westbrook,Room 1796,Néa Palátia,
Kelli,N,Bussel,17th Floor,Muikamachi,
Vassily,T,Cownden,Room 1203,Lairoka,
Wayland,A,Silburn,Apt 756,Himeville,
Denney,P,Serjeantson,18th Floor,Penhold,AB
Pacorro,Q,Chambers,20th Floor,Orlando,FL
Cherise,I,Siggin,Apt 1319,Belogorskīy,
Kacy,T,Whale,Room 1311,Gourcy,
Jannelle,C,Pattullo,Apt 1507,Blama,
Mallory,K,Walework,7th Floor,Tortosendo,5
Guglielma,B,Stolli,Suite 82,Pocohuanca,
Dela,M,Frodsam,PO Box 72337,Skrwilno,
Teresita,Y,Grzelczyk,Room 903,Longxing,
Sampson,T,Willcott,10th Floor,Ejmiatsin,
Mimi,Y,Martin,Room 500,Nîmes,A9
Jeni,F,Blodgetts,Suite 80,Kubangkondanglapangan,
Woodrow,W,Acres,Suite 90,Jampang Tengah,
Dionne,L,Ossulton,Room 1449,Dvinskoy,
Carol,O,Veelers,PO Box 35327,Leuwipicung,
Sylvia,U,Sidwick,Suite 84,Bar,
Barbra,B,Mc Queen,Suite 18,Dapchi,
Fabio,S,Loughton,13th Floor,New Westminster,BC
Bibby,U,Lockhurst,PO Box 30141,Vesëlyy,
Roselle,T,Stoven,Apt 1060,Vlkoš,
Isidora,D,Le Claire,Apt 1838,Maluanluan,
Laurel,I,Ucchino,Room 636,Quezon,
Carly,G,Durrand,Room 864,Shaxi,
Freeland,R,Brailsford,Room 1511,Junbu,
Ephraim,N,Galbreath,Apt 1467,Sápes,
Almira,Y,Tolchard,PO Box 38709,Comal,
Kristine,C,De la Harpe,PO Box 61383,Zhuhe,
Verine,D,Peerless,Room 1083,Khānpur,
Garald,Q,Sign,Apt 611,Pashkovskiy,
Craggie,B,Cholerton,Room 1676,Matão,
Nessie,B,Norwich,Suite 10,Jiantiao,
Kattie,Q,Oakley,PO Box 31553,Zhongxin,
Cesya,K,Alebrooke,PO Box 62675,Borzytuchom,
Leandra,S,Dorning,17th Floor,Aserrío de Gariché,
Johny,P,Scorey,1st Floor,Nginokrajan,
Karyl,U,Dodsley,2nd Floor,Kadyy,
Wenonah,J,Giriardelli,Apt 1838,San José de Comayagua,
Winfield,F,Weavill,Room 581,Għaxaq,
Alden,Q,Bugdell,Room 732,Atakpamé,
Calla,C,Ferenc,2nd Floor,Feodosiya,
Nicolas,K,Wigan,PO Box 56598,São Luís do Quitunde,
Jarrid,C,Kryszkiecicz,Room 1543,Nikolayevka,
Ambrose,Q,Lissandre,Suite 21,Karanganyar,
Curr,C,Ladlow,1st Floor,La Serena,
Isak,W,Boriston,PO Box 26216,Guogan,
Bride,M,Danton,20th Floor,Aitape,
Neille,L,Bambery,Room 292,Ban Na Muang,
Nikoletta,W,Brigman,Suite 12,Sapang Buho,
Rolfe,E,Mora,Apt 1948,Fuyang,
Evanne,E,Gelly,Apt 1961,Dapo,
Maryl,L,Jacobsohn,PO Box 41718,Miguel Hidalgo,GRO
Lavena,X,Eastwell,Room 747,Npongge,
Marta,Z,Taggett,Suite 72,Weiwangzhuang,
Annie,M,Rein,PO Box 29727,Benniu,
Ileana,W,Swindley,Apt 1625,Sanjie,
Kelsy,A,Gamwell,Room 1516,Jixin,
Madelina,Y,Dandy,Room 1820,Yelan’-Kolenovskiy,
Deeann,F,Rothman,16th Floor,Minle,
Viki,L,Bunting,2nd Floor,New-Richmond,QC
Amberly,Q,Leirmonth,Suite 43,Delcevo,
Corabelle,L,Ludgate,PO Box 15878,Torslanda,O
Kelbee,B,Wormleighton,PO Box 39685,Kynopiástes,
Cindy,S,Simeon,PO Box 50624,Lemenhe,3
Gael,G,Delos,17th Floor,Siteki,
Carree,Z,Perdue,Suite 65,Bondowoso,
Bordie,D,Wing,Suite 94,Laholm,N
Sidonia,Y,Berns,Suite 32,Strängnäs,D
Dorey,Y,Meir,Suite 12,Port Washington,NY
Fletch,H,Coode,Suite 30,Dallas,TX
Donnajean,Z,Ferriere,Room 1614,Topeka,KS
Rosco,Y,Nerval,PO Box 38071,Baijiang,
Chev,O,Tunbridge,Apt 1110,Koson Shahri,
Rhys,I,Lenham,15th Floor,Temara,
Edgardo,U,Gilford,Room 279,Karlskoga,T
Jarib,X,Abilowitz,Suite 54,Salas,
Astra,S,Poplee,Suite 94,Shalazhi,
Kelsy,R,Dimmer,Apt 1296,Dębno,
Carmencita,E,Petkovic,19th Floor,Casigua El Cubo,
Elihu,J,Hulbert,Suite 79,Xialiao,
Delcina,H,Logan,Apt 798,Hotaka,
Trstram,P,Benardet,19th Floor,Lethem,
Murdock,Y,Kurton,Apt 848,Toulon,B8
Anthony,F,Cansdill,PO Box 25286,Ōiso,
Krishnah,A,Alvarado,Room 612,Zhugentan,
Barnabas,U,Damarell,Suite 44,Cilongkrang,
Nathanial,G,Waggitt,Apt 385,Wantou,
Blinnie,I,Leak,Room 1756,Trancas,
Annelise,Z,Grzeskowski,9th Floor,Araguari,
Basil,K,Catcheside,Suite 29,Cottbus,BB
Karlis,S,Northwood,PO Box 88536,Korsakovo,
Antonino,B,Derry,Room 908,Zhuping,
Melony,M,Magnay,PO Box 69606,Chandal Bā’ī,
Anabal,P,Davys,Room 736,Shitan,
Seymour,E,Polland,Room 1047,Semypolky,
Melvyn,H,Tevelov,Apt 462,Dongmazar,
Archambault,D,Colmore,4th Floor,Hingatungan,
Irene,J,Treweela,PO Box 31425,Caper,
Randy,U,Pellman,Suite 74,Kristinehamn,S
Hew,Y,Archard,Apt 1614,Infanta,
Lorine,F,Florey,Room 1182,Berlin,BE
Florie,L,Coulston,Room 490,Pucacaca,
Krystyna,T,Paviour,Apt 495,Barra Velha,
Selina,V,Vaulkhard,Suite 32,Jinhua,
Malvina,Y,Dunne,Suite 21,Fort Worth,TX
Sherman,T,Shutt,Apt 1442,Tuopu,
Vivian,J,Lunt,Apt 47,Sibreh,
Sancho,V,Gogay,Room 550,Bełk,
Sydney,R,Bruckner,Apt 1933,Napak,
Jacquie,L,Coltart,PO Box 51316,Yerazgavors,
Bard,X,Kliner,Suite 14,Järna,AB
Louella,L,de Villier,Room 1246,Xiong’erzhai,
Friedrick,C,Pillans,PO Box 30663,Čeladná,
Norbie,O,Calverley,Apt 824,Dili,
Cooper,K,Bandey,Apt 662,Acopiara,
Vanya,X,Hiner,Suite 82,Stepnogorsk,
Lewiss,B,Llewelly,PO Box 55153,Hyesan-dong,
Sibella,J,Kirton,3rd Floor,Swedru,
Aldis,M,Fosten,PO Box 30693,Roma,LZ
Melitta,W,Pickard,6th Floor,La Unión,
Mariann,H,Mulheron,Suite 61,Shchelkovo,
Lynnet,Y,Allsopp,PO Box 25357,Hacıqabul,
Elmore,G,Vize,Suite 88,Kotlovka,
Elyse,L,Gundrey,Apt 226,Nueva Guinea,
Billye,Y,Grolmann,Suite 54,Wola Sernicka,
Dominik,O,Hawkeswood,Apt 1232,K’anak’erravan,
Franny,V,Hurdidge,Suite 69,Xitieshan,
Bob,C,Papen,Room 1650,Śmiłowo,
Ruthann,H,Jurgenson,PO Box 20298,Yingchengzi,
Galina,T,Wims,Room 844,Priboj,
Neil,H,Bentinck,5th Floor,Kenitra,
Roberta,O,Burberry,PO Box 25167,Libmanan,
Sly,U,Bootyman,Room 929,Horní Štěpánov,
Brandtr,W,Bineham,Room 1092,Miguel Calmon,
Babita,S,Runsey,Suite 2,Gostimë,
Susanne,A,Matthisson,Room 1153,Torres Novas,14
Amandy,P,Bachnic,Room 1161,Smarhon’,
Margaret,L,Glisenan,PO Box 40818,Šardice,
Shepard,O,Blaszczynski,Apt 516,Villa Allende,
Arda,L,Goggan,16th Floor,Cambarus,
Zola,A,Curtiss,Room 872,Snizhne,
Gill,S,Chessum,PO Box 94639,Kotel’va,
Lanny,M,Raigatt,Apt 1404,Kedungwringin Satu,
Dionne,C,McGaughie,Suite 90,Starokorsunskaya,
Tiertza,U,Southon,Suite 69,Sedatigede,
Teri,N,Foltin,Apt 882,Üydzen,
Wendel,I,Grunwald,Suite 51,Kuafeu,
Francoise,Y,Peddowe,9th Floor,Jiangwan,
Sergio,U,MacKeague,Room 1723,Mutsu,
Granthem,H,Espinel,Room 902,Pirca,
Florida,Y,Stucksbury,Apt 1290,Baishi,
Leila,W,Poland,Apt 1463,Arvika,S
Janella,K,Dignall,PO Box 94400,Salamina,
Mallorie,O,Lack,Suite 59,Maiyema,
Edvard,M,Stores,13th Floor,Anren Chengguanzhen,
Marv,Z,Gergus,10th Floor,Sulūk,
Trever,Z,Tebb,Room 1387,Kiuteta,
Ken,S,Tynan,Room 972,Dal’neye Konstantinovo,
Silvio,N,Corsham,Room 1211,San Miguel de Tucumán,
Jozef,V,Franchi,Apt 1986,Lianxia,
Ethel,I,Heaps,Room 1287,Bełżyce,
Homere,Z,Littleproud,PO Box 84878,Gibato,
Hardy,V,Caslett,11th Floor,Slyudyanka,
Steward,O,Bevir,17th Floor,Tigbinan,
Letta,R,Clues,PO Box 80018,Devnya,
